[{"OBJECT_NAME":"STARLINK-3359","OBJECT_ID":"2022-005AW","EPOCH":"2026-03-09T21:28:56.948448","MEAN_MOTION":15.09261145,"ECCENTRICITY":0.00017827,"INCLINATION":53.2179,"RA_OF_ASC_NODE":308.3843,"ARG_OF_PERICENTER":106.4627,"MEAN_ANOMALY":253.6561,"EPHEMERIS_TYPE":0,"CLASSIFICATION_TYPE":"U","NORAD_CAT_ID":51148,"ELEMENT_SET_NO":999,"REV_AT_EPOCH":22862,"BSTAR":0.00034573138,"MEAN_MOTION_DOT":5.281e-5,"MEAN_MOTION_DDOT":0},{"OBJECT_NAME":"OBJECT H","OBJECT_ID":"2025-292H","EPOCH":"2026-03-09T22:24:53.558208","MEAN_MOTION":15.06373042,"ECCENTRICITY":0.00142604,"INCLINATION":97.6442,"RA_OF_ASC_NODE":145.7846,"ARG_OF_PERICENTER":348.9217,"MEAN_ANOMALY":11.1694,"EPHEMERIS_TYPE":0,"CLASSIFICATION_TYPE":"U","NORAD_CAT_ID":67000,"ELEMENT_SET_NO":999,"REV_AT_EPOCH":1338,"BSTAR":0.0005462937,"MEAN_MOTION_DOT":8.001e-5,"MEAN_MOTION_DDOT":0}]
